ONEWEB-0125             
1 47271U 20100P   26064.26336572 -.00000370  00000+0 -10648-2 0  9998
2 47271  87.9002  11.2767 0001573  71.1689 288.9610 13.12444309251004
ONEWEB-0126             
1 47272U 20100Q   26064.13136186  .00000182  00000+0  47001-3 0  9997
2 47272  87.8997  11.3261 0001945  78.5710 281.5637 13.12442929251055
ONEWEB-0127             
1 47273U 20100R   26064.24981196 -.00000162  00000+0 -48462-3 0  9991
2 47273  87.8989  11.3065 0001986  82.1488 277.9866 13.12440636251097
ONEWEB-0128             
1 47274U 20100S   26064.27184028 -.00000165  00000+0 -49306-3 0  9995
2 47274  87.8989  11.3162 0001716  91.6015 268.5311 13.12443746251117
ONEWEB-0129             
1 47275U 20100T   26064.25151185 -.00000254  00000+0 -74093-3 0  9992
2 47275  87.8998  11.2831 0002960  80.9652 279.1812 13.12441338251041
ONEWEB-0130             
1 47276U 20100U   26064.27861675  .00000097  00000+0  23542-3 0  9993
2 47276  87.9005  11.2713 0001892  83.2415 276.8929 13.12443358251011
ONEWEB-0131             
1 47277U 20100V   26064.27522245 -.00000034  00000+0 -12995-3 0  9994
2 47277  87.8987  11.3025 0001856  81.4817 278.6522 13.12443170251058
ONEWEB-0132             
1 47278U 20100W   26064.22779347  .00000361  00000+0  96680-3 0  9991
2 47278  87.8995  11.3104 0001725  83.3396 276.7929 13.12441427250944
ONEWEB-0133             
1 47279U 20100X   26064.24459222 -.00000058  00000+0 -19522-3 0  9996
2 47279  87.9004  11.2713 0001736  85.7167 274.4160 13.12440734251107
ONEWEB-0134             
1 47280U 20100Y   26064.21424519  .00000318  00000+0  84812-3 0  9997
2 47280  87.9004  11.2746 0001940  87.0209 273.1141 13.12442993251074
ONEWEB-0135             
1 47281U 20100Z   26064.10918467 -.00000386  00000+0 -11084-2 0  9993
2 47281  87.8989  11.3318 0001923  90.5855 269.5494 13.12441882251086
ONEWEB-0136             
1 47282U 20100AA  26064.28030788  .00000096  00000+0  23124-3 0  9999
2 47282  87.8999  11.2703 0002122  89.3972 270.7400 13.12442948251033
ONEWEB-0137             
1 47283U 20100AB  26064.23794585  .00001413  00000+0  38915-2 0  9994
2 47283  87.9002  11.2842 0001923  79.0626 281.0719 13.12450445250931
ONEWEB-0138             
1 47284U 20100AC  26064.29217510  .00000428  00000+0  11550-2 0  9990
2 47284  87.8999  11.2829 0001999  84.6512 275.4845 13.12442830251027
ONEWEB-0139             
1 47285U 20100AD  26064.25673622 -.00000241  00000+0 -70455-3 0  9992
2 47285  87.8999  11.2773 0001834  82.1592 277.9745 13.12442373251090
ONEWEB-0140             
1 47286U 20100AE  26064.28708776  .00000238  00000+0  62656-3 0  9993
2 47286  87.9004  11.2591 0001665  85.7854 274.3465 13.12442975251064
