[{"OBJECT_NAME":"ONEWEB-0125","OBJECT_ID":"2020-100P","EPOCH":"2026-03-05T06:19:14.798208","MEAN_MOTION":13.12444309,"ECCENTRICITY":0.00015732,"INCLINATION":87.9002,"RA_OF_ASC_NODE":11.2767,"ARG_OF_PERICENTER":71.1689,"MEAN_ANOMALY":288.961,"EPHEMERIS_TYPE":0,"CLASSIFICATION_TYPE":"U","NORAD_CAT_ID":47271,"ELEMENT_SET_NO":999,"REV_AT_EPOCH":25100,"BSTAR":-0.0010648394,"MEAN_MOTION_DOT":-3.7e-6,"MEAN_MOTION_DDOT":0},{"OBJECT_NAME":"ONEWEB-0126","OBJECT_ID":"2020-100Q","EPOCH":"2026-03-05T03:09:09.664704","MEAN_MOTION":13.12442929,"ECCENTRICITY":0.00019454,"INCLINATION":87.8997,"RA_OF_ASC_NODE":11.3261,"ARG_OF_PERICENTER":78.571,"MEAN_ANOMALY":281.5637,"EPHEMERIS_TYPE":0,"CLASSIFICATION_TYPE":"U","NORAD_CAT_ID":47272,"ELEMENT_SET_NO":999,"REV_AT_EPOCH":25105,"BSTAR":0.00047001071,"MEAN_MOTION_DOT":1.82e-6,"MEAN_MOTION_DDOT":0},{"OBJECT_NAME":"ONEWEB-0127","OBJECT_ID":"2020-100R","EPOCH":"2026-03-05T05:59:43.753344","MEAN_MOTION":13.12440636,"ECCENTRICITY":0.00019864,"INCLINATION":87.8989,"RA_OF_ASC_NODE":11.3065,"ARG_OF_PERICENTER":82.1488,"MEAN_ANOMALY":277.9866,"EPHEMERIS_TYPE":0,"CLASSIFICATION_TYPE":"U","NORAD_CAT_ID":47273,"ELEMENT_SET_NO":999,"REV_AT_EPOCH":25109,"BSTAR":-0.0004846214,"MEAN_MOTION_DOT":-1.62e-6,"MEAN_MOTION_DDOT":0},{"OBJECT_NAME":"ONEWEB-0128","OBJECT_ID":"2020-100S","EPOCH":"2026-03-05T06:31:27.000192","MEAN_MOTION":13.12443746,"ECCENTRICITY":0.00017165,"INCLINATION":87.8989,"RA_OF_ASC_NODE":11.3162,"ARG_OF_PERICENTER":91.6015,"MEAN_ANOMALY":268.5311,"EPHEMERIS_TYPE":0,"CLASSIFICATION_TYPE":"U","NORAD_CAT_ID":47274,"ELEMENT_SET_NO":999,"REV_AT_EPOCH":25111,"BSTAR":-0.00049306226,"MEAN_MOTION_DOT":-1.65e-6,"MEAN_MOTION_DDOT":0},{"OBJECT_NAME":"ONEWEB-0129","OBJECT_ID":"2020-100T","EPOCH":"2026-03-05T06:02:10.623840","MEAN_MOTION":13.12441338,"ECCENTRICITY":0.00029601,"INCLINATION":87.8998,"RA_OF_ASC_NODE":11.2831,"ARG_OF_PERICENTER":80.9652,"MEAN_ANOMALY":279.1812,"EPHEMERIS_TYPE":0,"CLASSIFICATION_TYPE":"U","NORAD_CAT_ID":47275,"ELEMENT_SET_NO":999,"REV_AT_EPOCH":25104,"BSTAR":-0.00074093243,"MEAN_MOTION_DOT":-2.54e-6,"MEAN_MOTION_DDOT":0},{"OBJECT_NAME":"ONEWEB-0130","OBJECT_ID":"2020-100U","EPOCH":"2026-03-05T06:41:12.487200","MEAN_MOTION":13.12443358,"ECCENTRICITY":0.00018929,"INCLINATION":87.9005,"RA_OF_ASC_NODE":11.2713,"ARG_OF_PERICENTER":83.2415,"MEAN_ANOMALY":276.8929,"EPHEMERIS_TYPE":0,"CLASSIFICATION_TYPE":"U","NORAD_CAT_ID":47276,"ELEMENT_SET_NO":999,"REV_AT_EPOCH":25101,"BSTAR":0.00023542357,"MEAN_MOTION_DOT":9.7e-7,"MEAN_MOTION_DDOT":0},{"OBJECT_NAME":"ONEWEB-0131","OBJECT_ID":"2020-100V","EPOCH":"2026-03-05T06:36:19.219680","MEAN_MOTION":13.1244317,"ECCENTRICITY":0.00018567,"INCLINATION":87.8987,"RA_OF_ASC_NODE":11.3025,"ARG_OF_PERICENTER":81.4817,"MEAN_ANOMALY":278.6522,"EPHEMERIS_TYPE":0,"CLASSIFICATION_TYPE":"U","NORAD_CAT_ID":47277,"ELEMENT_SET_NO":999,"REV_AT_EPOCH":25105,"BSTAR":-0.00012995405,"MEAN_MOTION_DOT":-3.4e-7,"MEAN_MOTION_DDOT":0},{"OBJECT_NAME":"ONEWEB-0132","OBJECT_ID":"2020-100W","EPOCH":"2026-03-05T05:28:01.355808","MEAN_MOTION":13.12441427,"ECCENTRICITY":0.00017258,"INCLINATION":87.8995,"RA_OF_ASC_NODE":11.3104,"ARG_OF_PERICENTER":83.3396,"MEAN_ANOMALY":276.7929,"EPHEMERIS_TYPE":0,"CLASSIFICATION_TYPE":"U","NORAD_CAT_ID":47278,"ELEMENT_SET_NO":999,"REV_AT_EPOCH":25094,"BSTAR":0.00096679974,"MEAN_MOTION_DOT":3.61e-6,"MEAN_MOTION_DDOT":0},{"OBJECT_NAME":"ONEWEB-0133","OBJECT_ID":"2020-100X","EPOCH":"2026-03-05T05:52:12.767808","MEAN_MOTION":13.12440734,"ECCENTRICITY":0.00017365,"INCLINATION":87.9004,"RA_OF_ASC_NODE":11.2713,"ARG_OF_PERICENTER":85.7167,"MEAN_ANOMALY":274.416,"EPHEMERIS_TYPE":0,"CLASSIFICATION_TYPE":"U","NORAD_CAT_ID":47279,"ELEMENT_SET_NO":999,"REV_AT_EPOCH":25110,"BSTAR":-0.00019522304,"MEAN_MOTION_DOT":-5.8e-7,"MEAN_MOTION_DDOT":0},{"OBJECT_NAME":"ONEWEB-0134","OBJECT_ID":"2020-100Y","EPOCH":"2026-03-05T05:08:30.784416","MEAN_MOTION":13.12442993,"ECCENTRICITY":0.00019402,"INCLINATION":87.9004,"RA_OF_ASC_NODE":11.2746,"ARG_OF_PERICENTER":87.0209,"MEAN_ANOMALY":273.1141,"EPHEMERIS_TYPE":0,"CLASSIFICATION_TYPE":"U","NORAD_CAT_ID":47280,"ELEMENT_SET_NO":999,"REV_AT_EPOCH":25107,"BSTAR":0.00084812425,"MEAN_MOTION_DOT":3.18e-6,"MEAN_MOTION_DDOT":0},{"OBJECT_NAME":"ONEWEB-0135","OBJECT_ID":"2020-100Z","EPOCH":"2026-03-05T02:37:13.555488","MEAN_MOTION":13.12441882,"ECCENTRICITY":0.00019236,"INCLINATION":87.8989,"RA_OF_ASC_NODE":11.3318,"ARG_OF_PERICENTER":90.5855,"MEAN_ANOMALY":269.5494,"EPHEMERIS_TYPE":0,"CLASSIFICATION_TYPE":"U","NORAD_CAT_ID":47281,"ELEMENT_SET_NO":999,"REV_AT_EPOCH":25108,"BSTAR":-0.0011084456,"MEAN_MOTION_DOT":-3.86e-6,"MEAN_MOTION_DDOT":0},{"OBJECT_NAME":"ONEWEB-0136","OBJECT_ID":"2020-100AA","EPOCH":"2026-03-05T06:43:38.600832","MEAN_MOTION":13.12442948,"ECCENTRICITY":0.00021221,"INCLINATION":87.8999,"RA_OF_ASC_NODE":11.2703,"ARG_OF_PERICENTER":89.3972,"MEAN_ANOMALY":270.74,"EPHEMERIS_TYPE":0,"CLASSIFICATION_TYPE":"U","NORAD_CAT_ID":47282,"ELEMENT_SET_NO":999,"REV_AT_EPOCH":25103,"BSTAR":0.00023123593,"MEAN_MOTION_DOT":9.6e-7,"MEAN_MOTION_DDOT":0},{"OBJECT_NAME":"ONEWEB-0137","OBJECT_ID":"2020-100AB","EPOCH":"2026-03-05T05:42:38.521440","MEAN_MOTION":13.12450445,"ECCENTRICITY":0.00019238,"INCLINATION":87.9002,"RA_OF_ASC_NODE":11.2842,"ARG_OF_PERICENTER":79.0626,"MEAN_ANOMALY":281.0719,"EPHEMERIS_TYPE":0,"CLASSIFICATION_TYPE":"U","NORAD_CAT_ID":47283,"ELEMENT_SET_NO":999,"REV_AT_EPOCH":25093,"BSTAR":0.0038914682,"MEAN_MOTION_DOT":1.413e-5,"MEAN_MOTION_DDOT":0},{"OBJECT_NAME":"ONEWEB-0138","OBJECT_ID":"2020-100AC","EPOCH":"2026-03-05T07:00:43.928640","MEAN_MOTION":13.1244283,"ECCENTRICITY":0.00019993,"INCLINATION":87.8999,"RA_OF_ASC_NODE":11.2829,"ARG_OF_PERICENTER":84.6512,"MEAN_ANOMALY":275.4845,"EPHEMERIS_TYPE":0,"CLASSIFICATION_TYPE":"U","NORAD_CAT_ID":47284,"ELEMENT_SET_NO":999,"REV_AT_EPOCH":25102,"BSTAR":0.0011549554,"MEAN_MOTION_DOT":4.28e-6,"MEAN_MOTION_DDOT":0},{"OBJECT_NAME":"ONEWEB-0139","OBJECT_ID":"2020-100AD","EPOCH":"2026-03-05T06:09:42.009408","MEAN_MOTION":13.12442373,"ECCENTRICITY":0.00018342,"INCLINATION":87.8999,"RA_OF_ASC_NODE":11.2773,"ARG_OF_PERICENTER":82.1592,"MEAN_ANOMALY":277.9745,"EPHEMERIS_TYPE":0,"CLASSIFICATION_TYPE":"U","NORAD_CAT_ID":47285,"ELEMENT_SET_NO":999,"REV_AT_EPOCH":25109,"BSTAR":-0.00070454874,"MEAN_MOTION_DOT":-2.41e-6,"MEAN_MOTION_DDOT":0},{"OBJECT_NAME":"ONEWEB-0140","OBJECT_ID":"2020-100AE","EPOCH":"2026-03-05T06:53:24.382464","MEAN_MOTION":13.12442975,"ECCENTRICITY":0.00016655,"INCLINATION":87.9004,"RA_OF_ASC_NODE":11.2591,"ARG_OF_PERICENTER":85.7854,"MEAN_ANOMALY":274.3465,"EPHEMERIS_TYPE":0,"CLASSIFICATION_TYPE":"U","NORAD_CAT_ID":47286,"ELEMENT_SET_NO":999,"REV_AT_EPOCH":25106,"BSTAR":0.00062656273,"MEAN_MOTION_DOT":2.38e-6,"MEAN_MOTION_DDOT":0}]
